1 43013U 17073A   25336.84044345  .00000121  00000+0  78309-4 0  9994
2 43013  98.7584 273.2461 0002052 101.5196 258.6211 14.19521388416616
